{
    "links": {
        "self": "http://www.neowsapp.com/rest/v1/neo/54073336?api_key=iIulBulltgU6a56xZRHN4H3l9WmuAYTsLGpBGhQ2"
    },
    "id": "54073336",
    "neo_reference_id": "54073336",
    "name": "(2020 TH7)",
    "designation": "2020 TH7",
    "nasa_jpl_url": "http://ssd.jpl.nasa.gov/sbdb.cgi?sstr=54073336",
    "absolute_magnitude_h": 24.989,
    "estimated_diameter": {
        "kilometers": {
            "estimated_diameter_min": 0.0267149876,
            "estimated_diameter_max": 0.0597365282
        },
        "meters": {
            "estimated_diameter_min": 26.7149875797,
            "estimated_diameter_max": 59.7365282462
        },
        "miles": {
            "estimated_diameter_min": 0.0165999185,
            "estimated_diameter_max": 0.0371185463
        },
        "feet": {
            "estimated_diameter_min": 87.6475998509,
            "estimated_diameter_max": 195.9859913312
        }
    },
    "is_potentially_hazardous_asteroid": false,
    "close_approach_data": [
        {
            "close_approach_date": "1908-11-06",
            "close_approach_date_full": "1908-Nov-06 17:30",
            "epoch_date_close_approach": -1929767400000,
            "relative_velocity": {
                "kilometers_per_second": "12.9099013327",
                "kilometers_per_hour": "46475.6447977715",
                "miles_per_hour": "28878.1582911486"
            },
            "miss_distance": {
                "astronomical": "0.1958125013",
                "lunar": "76.1710630057",
                "kilometers": "29293133.113852231",
                "miles": "18201908.8832175478"
            },
            "orbiting_body": "Earth"
        },
        {
            "close_approach_date": "1911-01-03",
            "close_approach_date_full": "1911-Jan-03 16:34",
            "epoch_date_close_approach": -1861687560000,
            "relative_velocity": {
                "kilometers_per_second": "4.722265655",
                "kilometers_per_hour": "17000.1563578287",
                "miles_per_hour": "10563.236043563"
            },
            "miss_distance": {
                "astronomical": "1.2486227348",
                "lunar": "485.7142438372",
                "kilometers": "186791301.559654876",
                "miles": "116066732.7032582488"
            },
            "orbiting_body": "Juptr"
        },
        {
            "close_approach_date": "2020-10-18",
            "close_approach_date_full": "2020-Oct-18 12:57",
            "epoch_date_close_approach": 1603025820000,
            "relative_velocity": {
                "kilometers_per_second": "9.5879523413",
                "kilometers_per_hour": "34516.6284286338",
                "miles_per_hour": "21447.2905922252"
            },
            "miss_distance": {
                "astronomical": "0.1155333255",
                "lunar": "44.9424636195",
                "kilometers": "17283539.408816685",
                "miles": "10739493.391712853"
            },
            "orbiting_body": "Earth"
        }
    ],
    "orbital_data": {
        "orbit_id": "3",
        "orbit_determination_date": "2020-11-07 06:22:49",
        "first_observation_date": "2020-10-15",
        "last_observation_date": "2020-11-06",
        "data_arc_in_days": 22,
        "observations_used": 21,
        "orbit_uncertainty": "8",
        "minimum_orbit_intersection": ".114802",
        "jupiter_tisserand_invariant": "3.042",
        "epoch_osculation": "2459140.5",
        "eccentricity": ".59281899616153",
        "semi_major_axis": "2.727480224052854",
        "inclination": "13.49900169162585",
        "ascending_node_longitude": "203.7084452388675",
        "orbital_period": "1645.28387915254",
        "perihelion_distance": "1.110578135579416",
        "perihelion_argument": "183.9526124336809",
        "aphelion_distance": "4.344382312526291",
        "perihelion_time": "2459143.780514801323",
        "mean_anomaly": "359.2821996596207",
        "mean_motion": ".2188072250397484",
        "equinox": "J2000",
        "orbit_class": {
            "orbit_class_type": "AMO",
            "orbit_class_description": "Near-Earth asteroid orbits similar to that of 1221 Amor",
            "orbit_class_range": "1.017 AU < q (perihelion) < 1.3 AU"
        }
    },
    "is_sentry_object": false
}